CompanyName,country,latitude,longitude,Description,macrospecies,Address,AlgaeColor
,Denmark,55.916972,11.644222,Harvesting - Manual,"Chorda filum, Chondrus sp., Delesseria sanguinea, Fucus serratus, Fucus vesiculosus , Furcellaria lumbricalis , Laminaria digitata, Saccharina latissima, Ulva sp.","15A, HÃƒÂ¸jbyvej, Moseby, Odsherred Kommune, Region SjÃƒÂ¦lland, 4500, Danmark","red algae, brown algae"
AgersÃ¸ Havn,Denmark,55.21163,11.19804,Aquaculture - At sea,Saccharina latissima,"1. AgersÃ¸ Havn, AgersÃ¸ MÃ¸llevej, AgersÃ¸, Slagelse Kommune, Region SjÃ¦lland, 4244, Danmark",
Ã…strupvej,Denmark,55.819701,10.036009,Aquaculture - At sea,Brown seaweed,"2. Ã…strupvej, Grenaa, Norddjurs Kommune, Region Midtjylland, 8500, Danmark",
CamiÃ±o da Agreira,Denmark,57.26072,11.000328,Harvesting - Manual,,"3. CamiÃ±o da Agreira, O PortiÃ±o, Solleiros, Esteiro, Muros, A CoruÃ±a, Galicia, 15240, EspaÃ±a",
"AragÃ³n, 80",Denmark,56.419737,10.883665,Aquaculture - At sea,"Alaria esculenta, Fucus serratus, Fucus vesiculosus , Saccharina latissima","4. AragÃ³n, 80, RÃºa AragÃ³n, A Inmaculada, Lavadores, A Ceboleira, Vigo, Pontevedra, Galicia, 36206, EspaÃ±a",brown algae
Barrio Campuzano,Denmark,56.420726,10.885017,Aquaculture - At sea,"Alaria esculenta, Fucus serratus, Fucus vesiculosus , Saccharina latissima","5. Barrio Campuzano, Nueva Ciudad, Barrio Mies de Palacios, Campuzano, Torrelavega, Cantabria, 39300, EspaÃ±a",brown algae
Calle CaÃ±ada Ancha 6,Denmark,55.170861,11.158639,Harvesting - Manual,"Fucus serratus, Fucus vesiculosus , Laminaria digitata, Saccharina latissima","6. Calle CaÃ±ada Ancha 6, CaÃ±ada Ancha, Vejer de la Frontera, La Janda, CÃ¡diz, AndalucÃ­a, 11150, EspaÃ±a",brown algae
EspaÃ±a,Denmark,56.242298,10.489349,Harvesting - Manual,Fucus sp.,7. EspaÃ±a,
BelgiÃ« / Belgique / Belgien,Denmark,56.41056,10.923728,Aquaculture - Land-based,Ulva sp.,8. BelgiÃ« / Belgique / Belgien,
Santa UxÃ­a de Ribeira,Denmark,56.159406,10.204373,Harvesting - Manual,Fucus sp.,"9. Santa UxÃ­a de Ribeira, Ribeira, A Barbanza, A CoruÃ±a, Galicia, 15960, EspaÃ±a",
ConcepciÃ³n Arenal,Denmark,56.093035,10.192804,Aquaculture - At sea,Saccharina latissima,"10. ConcepciÃ³n Arenal, Parque Empresarial do SalnÃ©s, Bouza de PadrÃ³n, OubiÃ±a, Cambados, O SalnÃ©s, Pontevedra, Galicia, 36635, EspaÃ±a",
RÃºa Pinar do RÃ­o,Denmark,56.712171,8.774798,Aquaculture - At sea,Saccharina latissima,"11. RÃºa Pinar do RÃ­o, Pinar do RÃ­o, Punxeiro, Serantes, Mera, Oleiros, A CoruÃ±a, Galicia, 15177, EspaÃ±a",
carrer DÃ©nia,Estonia,58.321389,22.251944,Harvesting - Manual and Mechanical,Furcellaria lumbricalis,"12. carrer DÃ©nia, Pego, la Marina Alta, Alacant / Alicante, Comunitat Valenciana, 03780, EspaÃ±a",red algae
RÃºa RosalÃ­a de Castro,Estonia,58.60816,22.908037,Harvesting - Mechanical,"Coccotylus truncatus, Furcellaria lumbricalis","13. RÃºa RosalÃ­a de Castro, O Campo da Feira, O MuÃ­Ã±o do Vento, Muros, A CoruÃ±a, Galicia, 15250, EspaÃ±a",red algae
Ronda Norte,Spain,43.664321,-7.842559,Harvesting - Manual,"Codium sp., Himanthalia elongata, Porphyra sp., Ulva sp., Undaria sp.","14. Ronda Norte, Isla Cristina, Costa Occidental, Huelva, AndalucÃ­a, 21410, EspaÃ±a",brown algae
FÃ¸royar,Spain,42.79114,-8.984719,Harvesting - Manual,"Himanthalia sp., Porphyra sp., Ulva sp., Undaria sp.",15. FÃ¸royar,
Rocade des ChÃªnes,Spain,42.235033,-8.701249,Harvesting - Manual,"Brown seaweed, Codium sp., Ulva sp., Undaria sp.","16. Rocade des ChÃªnes, Prat Per, CitÃ© de Beauregard, PlouÃ©nan, Morlaix, FinistÃ¨re, Bretagne, France mÃ©tropolitaine, 29420, France",
Bilien,Spain,43.334226,-4.054553,Aquaculture - Land-based,Ulva sp.,"17. Bilien, France mÃ©tropolitaine, 29980, France",
Voies de DÃ©part,Spain,43.173572,-8.476032,Harvesting - Manual,"Chondrus crispus, Codium sp., Gigartina pistillata, Himanthalia elongata, Laminaria ochroleuca, Mastocarpus stellatus, Porphyra sp., Saccharina latissima, Ulva sp., Undaria sp.","18. Voies de DÃ©part, Espace portuaire Alexis Gourvennec, Port de Bloscon, Roscoff, Morlaix, FinistÃ¨re, Bretagne, France mÃ©tropolitaine, 29680, France","brown algae, red algae"
Rue Ollivier Henri,Spain,36.272304,-5.963614,Harvesting - Manual,"Codium sp., Gracilaria sp., Salicornia sp., Ulva sp.","19. Rue Ollivier Henri, Les Capucins, Roscoff, Morlaix, FinistÃ¨re, Bretagne, France mÃ©tropolitaine, 29680, France",
Rue de lÂ’Herminette,Spain,42.872461,-8.563125,Harvesting - n/a,"Ascophyllum nodosum, Bifurcaria bifurcata, Fucus vesiculosus , Saccharina latissima","20. Rue de l'Herminette, La BigottiÃ¨re, Saint-MÃ©loir-des-Ondes, Saint-Malo, Ille-et-Vilaine, Bretagne, France mÃ©tropolitaine, 35350, France","green algae, brown algae"
Rue du Moulin Ã  Mer,Spain,43.513868,-5.205583,Harvesting - Manual,Undaria sp.,"21. Rue du Moulin Ã  Mer, Traou bian, LÃ©zardrieux, Lannion, CÃ´tes-d'Armor, Bretagne, France mÃ©tropolitaine, 22740, France",
Chemin des Lavoirs,Spain,51.191309,2.679325,Harvesting - n/a,"Gelidium sesquipedale, Himanthalia sp., Laminaria sp., Palmaria palmata, Porphyra sp., Undaria sp.","22. Chemin des Lavoirs, Pen Liorzou, Lampaul-PloudalmÃ©zeau, Brest, FinistÃ¨re, Bretagne, France mÃ©tropolitaine, 29830, France",red algae
Laboratoire dÂ’Armor,Spain,42.534107,-8.94865,Harvesting - Manual,"Himanthalia elongata, Undaria sp.","23. Laboratoire d'Armor, Rue de Pen Lan, Pen Laneros, Pleubian, Lannion, CÃ´tes-d'Armor, Bretagne, France mÃ©tropolitaine, 22610, France",brown algae
Chemin du Moulin du Nord,Spain,43.513415,-5.263589,Aquaculture - At sea,Saccharina latissima,"24. Chemin du Moulin du Nord, ÃŽle-MolÃ¨ne, Brest, FinistÃ¨re, Bretagne, France mÃ©tropolitaine, 29259, France",
Route de la Mer,Spain,37.284974,-7.172719,Aquaculture - At sea,"Gracilaria sp., Ulva sp.","25. Route de la Mer, Salin-de-Giraud, Arles, Bouches-du-RhÃ´ne, Provence-Alpes-CÃ´te d'Azur, France mÃ©tropolitaine, 13200, France",
Goemar,Spain,42.526569,-8.776078,Harvesting - Manual,"Codium sp., Himanthalia elongata, Laminaria sp., Ulva sp., Undaria sp.","26. Goemar, Avenue Atalante, ChÃ¢teau-Malo, Saint-Jouan-des-GuÃ©rets, Saint-Malo, Ille-et-Vilaine, Bretagne, France mÃ©tropolitaine, 35430, France",brown algae
Chemin de Toull al Lann,Spain,43.380115,-8.33248,Aquaculture - At sea,Saccharina latissima,"27. Chemin de Toull al Lann, Golgon, Crec'h ar Gant, TrÃ©gastel, Lannion, CÃ´tes-d'Armor, Bretagne, France mÃ©tropolitaine, 22730, France",
Chemin de Toull al Lann,Spain,43.28149,-8.208406,Harvesting - Manual,"Fucus sp., Gelidium sp., Gigartina sp., Laminaria sp.","28. Chemin de Toull al Lann, Golgon, Crec'h ar Gant, TrÃ©gastel, Lannion, CÃ´tes-d'Armor, Bretagne, France mÃ©tropolitaine, 22730, France",
Kerazan Vihan,Spain,38.844784,-0.100217,Harvesting - n/a,Ascophyllum nodosum,"29. Kerazan Vihan, Corn Mikel Bras, Kerazan, Lilia, Plouguerneau, Brest, FinistÃ¨re, Bretagne, France mÃ©tropolitaine, 29880, France","green algae, brown algae"
Kerazan Vihan,Spain,43.512244,-5.723382,Harvesting - n/a,"Laminaria ochroleuca, Palmaria palmata, Saccharina latissima","30. Kerazan Vihan, Corn Mikel Bras, Kerazan, Lilia, Plouguerneau, Brest, FinistÃ¨re, Bretagne, France mÃ©tropolitaine, 29880, France",brown algae
An BÃ³thar MÃ³r,Spain,42.725656,-8.972732,Harvesting - Manual,Himanthalia sp.,"31. An BÃ³thar MÃ³r, Cill Ã‰inne, Ãrainn, Conamara Municipal District, County Galway, Connacht, H91 DP95, Ã‰ire / Ireland",
Teagasc Moorepark,Spain,42.775088,-9.056212,Harvesting - Manual,"Chondrus crispus, Dilsea carnosa, Fucus spiralis, Gigartina pistillata, Grateloupia turuturu, Himanthalia elongata, Laminaria ochroleuca, Mastocarpus stellatus, Osmundea pinnatifida, Porphyra sp.","32. Teagasc Moorepark, R639, Kilworth, The Municipal District of Fermoy, County Cork, Munster, P61 C996, Ã‰ire / Ireland","red algae, brown algae"
Ballymoon Industrial Estate,Spain,43.173155,-8.475667,Aquaculture - n/a,"Gracilariopsis longissima, Saccharina latissima","33. Ballymoon Industrial Estate, Cashlings Bridge, Kilcar ED, Donegal Municipal District, County Donegal, Ulster, F94 A3NR, Ã‰ire / Ireland",red algae
Forge Road,Spain,37.204227,-7.324172,Aquaculture - n/a,"Gracilariopsis longissima, Ulva sp.","34. Forge Road, Castlegregory ED, Kenmare Municipal District, County Kerry, Munster, V92 A09W, Ã‰ire / Ireland",red algae
Burma Road,Spain,38.224463,-0.5217619,Aquaculture - Land-based,Ulva sp.,"35. Burma Road, Carrowbunnaun, Knockaree ED, Sligo Municipal Borough District, County Sligo, Connacht, F91 VX08, Ã‰ire / Ireland",
Ã‰ire / Ireland,Faroe Islands,62.303,-6.9267,Aquaculture - At sea,"Alaria esculenta, Laminaria digitata, Palmaria palmata, Saccharina latissima",36. Ã‰ire / Ireland,
The Promenade,Faroe Islands,62.058182,-6.835578,Harvesting - Manual,"Alaria esculenta, Himanthalia sp., Laminaria digitata, Palmaria palmata, Porphyra umbilicalis, Saccharina latissima, Vertebrata lanosa","37. The Promenade, Tramore, Waterford City Metropolitan District, County Waterford, Munster, X91 HF44, Ã‰ire / Ireland",
The Masterlift Group,Faroe Islands,62.058182,-6.835578,Aquaculture - At sea,"Alaria esculenta, Himanthalia sp., Laminaria digitata, Palmaria palmata, Porphyra umbilicalis, Saccharina latissima, Vertebrata lanosa","38. The Masterlift Group, Grants Road, Greenogue Business Park, Newcastle DED 1986, South Dublin, County Dublin, Leinster, D24 NX38, Ã‰ire / Ireland",
Curraghbinny Road,France,48.619996,-4.530531,Harvesting - n/a,"Ascophyllum nodosum, Brown seaweed, Chondrus crispus, Fucus sp., Laminaria digitata, Ulva lactuca","39. Curraghbinny Road, Carrigaline ED, Municipal District of Carrigaline, County Cork, Munster, P43 AY66, Ã‰ire / Ireland","green algae, brown algae"
Conair DhÃºlra Cois Cladaigh Doire FhÃ­onÃ¡in / Derrynane Seashore Nature Trail,France,48.629066,-3.994812,Harvesting - Mechanical,,"40. Conair DhÃºlra Cois Cladaigh Doire FhÃ­onÃ¡in / Derrynane Seashore Nature Trail, Darrynane ED, Kenmare Municipal District, County Kerry, Munster, V93 DD83, Ã‰ire / Ireland",
Aiden Street,France,47.824438,-4.1322,Aquaculture - At sea,Laminaria sp.,"41. Aiden Street, Kiltamagh ED, Claremorris-Swinford Municipal District, County Mayo, Connacht, F12 CH74, Ã‰ire / Ireland",
Main Street,France,48.725526,-3.983018,Harvesting - Manual,"Laminaria digitata, Palmaria palmata, Porphyra sp., Ulva lactuca, Undaria sp.","42. Main Street, Ballydehob ED, West Cork, County Cork, Munster, P81 XF34, Ã‰ire / Ireland",
ÃlftamÃ½rarskÃ³li,France,48.639048,-2.974023,Harvesting - Manual,"Alaria sp., Chondrus crispus, Fucus sp., Himanthalia elongata, Lithothamnium calcareum, Palmaria palmata, Porphyra sp., Saccharina latissima, Ulva sp., Undaria sp.","43. ÃlftamÃ½rarskÃ³li, 79, ÃlftamÃ½ri, HÃ¡aleiti, HÃ¡aleiti og BÃºstaÃ°ir, ReykjavÃ­kurborg, HÃ¶fuÃ°borgarsvÃ¦Ã°iÃ°, 108, Ãsland",brown algae
MÃ¡vaflÃ¶t,France,48.460317,-5.099219,Harvesting - Manual,"Brown seaweed, Red seaweed","44. MÃ¡vaflÃ¶t, ReykhÃ³lar, ReykhÃ³lahreppur, VestfirÃ°ir, 380, Ãsland",
Zuider Haaks,France,48.460323,-5.091803,Harvesting - Manual,"Brown seaweed, Red seaweed","45. Zuider Haaks, 't Horntje, Den Hoorn, Texel, Noord-Holland, Nederland, 1797 SH, Nederland",
Haarlemmerstraatweg,France,48.720048,-3.965162,Harvesting - Manual,"Himanthalia elongata, Palmaria palmata, Porphyra sp., Saccharina latissima, Ulva sp., Undaria sp.","46. Haarlemmerstraatweg, Halfweg, Haarlemmermeer, Noord-Holland, Nederland, 1161 NJ, Nederland",brown algae
Jacobahaven,France,48.723102,-3.984566,Harvesting - Manual,"Fucus vesiculosus , Himanthalia elongata, Palmaria palmata, Porphyra sp., Saccharina latissima, Ulva lactuca, Undaria sp.","47. Jacobahaven, De Banjaard, Kamperland, Noord-Beveland, Zeeland, Nederland, 4493 ML, Nederland",brown algae
Algea,France,47.961368,-3.850556,Harvesting - Manual,"Himanthalia elongata, Palmaria palmata, Porphyra umbilicalis, Saccharina latissima, Salicornia sp., Ulva sp., Undaria sp.","48. Algea, Omagata, Vestbase, Nordlandet, Kristiansund, MÃ¸re og Romsdal, 6516, Norge",brown algae
S12 Galleri og Verksted,France,48.638667,-1.913806,Aquaculture - At sea,"Alaria esculenta, Saccharina latissima, Undaria sp.","49. S12 Galleri og Verksted, Bontelabo, Bergenhus, Skuteviken, Bergenhus, Bergen, Vestland, 5004, Norge",
FrÃ¸ya,France,48.470005,-4.325661,Harvesting - Manual,"Fucus vesiculosus , Himanthalia elongata, Palmaria palmata, Porphyra sp., Ulva sp., Undaria sp.","50. FrÃ¸ya, TrÃ¸ndelag, Norge",brown algae
Folkestien Hove,France,47.797175,-4.212272,Harvesting - Manual,"Brown seaweed, Himanthalia elongata, Palmaria palmata, Porphyra sp., Ulva sp., Undaria sp.","51. Folkestien Hove, Hove, Arendal, Agder, 4818, Norge",brown algae
Skrova,France,48.048632,-2.691488,Harvesting - Mechanical,"Solieria sp., Ulva sp.","52. Skrova, VÃ¥gan, Nordland - NordlÃ¡ndda, 8320, Norge",
Nordfoldveien,France,48.802927,-3.102625,Harvesting - Mechanical,"Alaria esculenta, Saccharina latissima, Undaria sp.","53. Nordfoldveien, Ã˜vergÃ¥rden, Holmen, Nordfold, Steigen, Nordland - NordlÃ¡ndda, 8286, Norge",
Kopholmen,France,48.566173,-4.654513,Harvesting - Mechanical,"Chondrus crispus, Fucus vesiculosus , Laminaria digitata, Lithothamnium calcareum, Palmaria palmata, Ulva lactuca, Undaria sp.","54. Kopholmen, Osnes, Vik, KarmÃ¸y, Rogaland, 4260, Norge",
Aure,France,48.858389,-3.07775,Harvesting - Manual,"Ascophyllum nodosum, Fucus sp., Palmaria sp., Porphyra sp., Ulva sp., Undaria sp.","55. Aure, MÃ¸re og Romsdal, Norge","green algae, brown algae"
LÃ¥tret,France,48.552661,-4.489669,Harvesting - Mechanical,"Laminaria digitata, Laminaria hyperborea","56. LÃ¥tret, Hammerfest, Finnmark, 9651, Norge",brown algae
Via das Lavegadas,France,48.399567,-4.963494,Harvesting - Manual,"Ascophyllum nodosum, Asparagopsis armata, Chondrus crispus, Corallina sp., Fucus sp., Himanthalia sp., Laminaria sp., Palmaria sp., Pelvetia sp., Ulva sp.","57. Via das Lavegadas, Bairro dos Pescadores, Ãlhavo (SÃ£o Salvador), Ãlhavo, Aveiro, 3830-198, Portugal","green algae, brown algae, red algae"
PoÃ§a da Rainha (Feteira),France,43.406017,4.755429,Aquaculture - Land-based,Ulva rigida,"58. PoÃ§a da Rainha (Feteira), Estrada Regional da Laginha, Lajinha, Feteira, Horta, AÃ§ores, 9900-371, Portugal",green algae
Ponta de SÃ£o Jorge,France,48.611231,-1.972599,Harvesting - Manual,Fucus sp.,"59. Ponta de SÃ£o Jorge, Porto Martins, Praia da VitÃ³ria, AÃ§ores, 9760-129, Portugal",
Caminho Rural da Carreira de Tiro,France,48.461143,-4.357041,Harvesting - Manual,"Laminaria digitata, Palmaria palmata","60. Caminho Rural da Carreira de Tiro, Flamengos, Horta, AÃ§ores, 9900-404, Portugal",
Rua das AcÃ¡cias,France,48.439016,-4.282666,Harvesting - Manual,"Chondrus crispus, Fucus sp., Laminaria sp., Mastocarpus stellatus, Palmaria palmata, Ulva sp.","61. Rua das AcÃ¡cias, Parque Industrial da Figueira da Foz, SÃ£o Pedro, Figueira da Foz, Coimbra, 3090-380, Portugal",red algae
Rua da RepÃºblica,France,48.55689,-4.694778,Harvesting - Manual,"Alaria sp., Himanthalia elongata, Palmaria palmata, Porphyra sp., Saccharina latissima, Ulva sp., Undaria sp.","62. Rua da Republica, Casal das Hortas, SÃ£o Martinho do Porto, AlcobaÃ§a, Leiria, 2460-873, Portugal",brown algae
Ica NÃ¤ra,France,48.527799,-4.747696,Harvesting - Manual,"Himanthalia elongata, Palmaria palmata, Porphyra sp., Saccharina latissima, Ulva sp.","63. Ica NÃ¤ra, 10, LÃ¤ngbrotorg, Norr, Ã–rebro, Ã–rebro kommun, Ã–rebro lÃ¤n, 703 66, Sverige",brown algae
LovÃ©ncentret TjÃ¤rnÃ¶,France,48.720691,-3.968565,Harvesting - Manual,"Himanthalia elongata, Palmaria palmata, Porphyra sp., Saccharina latissima, Ulva sp., Undaria sp.","64. LovÃ©ncentret TjÃ¤rnÃ¶, HÃ¤ttebÃ¤cksvÃ¤gen, Klockarkassen, HÃ¤ttebÃ¤ck, StrÃ¶mstads kommun, VÃ¤stra GÃ¶talands lÃ¤n, 452 96, Sverige",brown algae
Bute Backpackers Hotel,France,46.948422,-2.049976,Aquaculture - n/a,,"65. Bute Backpackers Hotel, 36, Argyle Street, Rothesay, Argyll and Bute, Alba / Scotland, PA20 0AX, United Kingdom",
West Shore Road,France,48.818012,-3.4967288,Harvesting - Mechanical,"Ascophyllum nodosum, Chondrus crispus, Codium tomentosum, Fucus serratus, Fucus vesiculosus , Himanthalia elongata, Laminaria digitata, Laminaria hyperborea, Palmaria palmata, Saccharina latissima, Ulva intestinalis, Ulva lactuca, Undaria pinnatifida","66. West Shore Road, West Granton, West Pilton/West Granton, City of Edinburgh, Alba / Scotland, EH5 1QF, United Kingdom","green algae, brown algae"
Cytocell,France,48.818012,-3.4967288,Aquaculture - At sea,"Ascophyllum nodosum, Chondrus crispus, Codium tomentosum, Fucus serratus, Fucus vesiculosus , Himanthalia elongata, Laminaria digitata, Laminaria hyperborea, Palmaria palmata, Saccharina latissima, Ulva intestinalis, Ulva lactuca, Undaria pinnatifida","67. Cytocell, 3-4, Newmarket Road, Barnwell, Cambridge, Cambridgeshire, Cambridgeshire and Peterborough, England, CB5 8PB, United Kingdom","green algae, brown algae"
HillmanÂ’s Fancy,France,48.836385,-3.0140507,Harvesting - Mechanical,"Ascophyllum nodosum, Chondrus crispus, Codium tomentosum, Fucus serratus, Fucus vesiculosus , Himanthalia elongata, Laminaria digitata, Laminaria hyperborea, Palmaria palmata, Saccharina latissima, Ulva intestinalis, Ulva lactuca, Undaria pinnatifida","68. Hillman's Fancy, Ballycastle Road Industrial Estate, Coleraine, County Londonderry, Northern Ireland / Tuaisceart Ã‰ireann, BT51 1LZ, United Kingdom","green algae, brown algae"
Gweek Drive,France,48.836385,-3.0140507,Aquaculture - At sea,"Ascophyllum nodosum, Chondrus crispus, Codium tomentosum, Fucus serratus, Fucus vesiculosus , Himanthalia elongata, Laminaria digitata, Laminaria hyperborea, Palmaria palmata, Saccharina latissima, Ulva intestinalis, Ulva lactuca, Undaria pinnatifida","69. Gweek Drive, Gweek, Cornwall, England, TR12 6UF, United Kingdom","green algae, brown algae"
Averon Way,France,48.6118732,-4.5595401,Aquaculture - At sea,"Alaria esculenta, Calliblepharis jubata, Palmaria palmata, Saccharina latissima, Ulva sp., Ulvella lens","70. Averon Way, Alness, Highland, Alba / Scotland, IV17 0PF, United Kingdom",
T OÂ’Sullivan & Co.,France,48.6120718,-4.5604843,Aquaculture - At sea,"Alaria esculenta, Calliblepharis jubata, Palmaria palmata, Saccharina latissima, Ulva sp., Ulvella lens","71. T O'Sullivan & Co., 230, Park View, Monkseaton, Whitley Bay, North Tyneside, North East, England, NE26 3QW, United Kingdom",
Rhuvaal Road,Ireland,54.690104,-8.759238,Harvesting - Manual,"Alaria esculenta, Chondrus crispus, Himanthalia elongata, Laminaria digitata, Palmaria palmata, Porphyra umbilicalis, Ulva sp.","72. Rhuvaal Road, Glenshellach, Oban, Argyll and Bute, Alba / Scotland, PA34 4BT, United Kingdom",brown algae
Ayr Calor Centre,Ireland,53.446381,-9.044547,Harvesting - Manual,,"73. Ayr Calor Centre, 18, Boundary Road, Heathfield, Ayr, South Ayrshire, Alba / Scotland, KA8 9SW, United Kingdom",
HillmanÂ’s Fancy,Ireland,53.320667,-9.7335,Harvesting - Manual,Ascophyllum nodosum,"74. Hillman's Fancy, Ballycastle Road Industrial Estate, Coleraine, County Londonderry, Northern Ireland / Tuaisceart Ã‰ireann, BT51 1LZ, United Kingdom","green algae, brown algae"
An BÃƒÂ³thar MÃƒÂ³r,Ireland,53.123292,-9.670389,Harvesting - Manual,Brown seaweed,o3-mini-high,
Teagasc Moorepark,Ireland,52.162553,-8.26161,Harvesting - Manual,"Ascophyllum nodosum, Fucus vesiculosus","Teagasc Moorepark, R639, Kilworth, The Municipal District of Fermoy, County Cork, Munster, P61 C996, ÃƒÂ‰ire / Ireland","green algae, brown algae"
,Ireland,53.619851,-8.917645,Harvesting - n/a,"Brown seaweed, Green seaweed, Red seaweed","Milltown ED, Tuam Municipal District, County Galway, Connacht, Ã‰ire / Ireland",
Ballymoon Industrial Estate,Ireland,54.657458,-8.575345,Harvesting - n/a,Ascophyllum nodosum,"Ballymoon Industrial Estate, Cashlings Bridge, Kilcar ED, Donegal Municipal District, County Donegal, Ulster, F94 A3NR, ÃƒÂ‰ire / Ireland","green algae, brown algae"
,Ireland,53.2733561,-9.3044307,Aquaculture - At sea,"Fucus serratus, Laminaria sp.","An SpidÃ©al, Conamara Municipal District, County Galway, Connacht, H91 CH01, Ã‰ire / Ireland",brown algae
,Ireland,53.336218,-9.182298,Harvesting - Manual,,"L1320, Maigh Cuilinn, Conamara Municipal District, County Galway, Connacht, H91 PXK4, Ã‰ire / Ireland",
,Ireland,53.271216,-9.071649,Harvesting - n/a,,"26, Maunsell's Road, Taylor's Hill, Cathair na Gaillimhe, County Galway, Connacht, H91 R26K, Ã‰ire / Ireland",
Forge Road,Ireland,52.252965,-10.025443,Aquaculture - At sea,"Alaria sp., Asparagopsis sp., Falkenbergia sp., Gracilaria sp., Ulva sp.","Forge Road, Castlegregory ED, Kenmare Municipal District, County Kerry, Munster, V92 A09W, ÃƒÂ‰ire / Ireland",
,Ireland,53.801428,-9.528173,Aquaculture - At sea,"Alaria sp., Asparagopsis sp., Falkenbergia sp., Gracilaria sp., Ulva sp.","New Road, Westport Harbour, Westport Urban ED, Westport-Belmullet Municipal District, County Mayo, Connacht, F28 RD39, Ã‰ire / Ireland",
,Ireland,55.176359,-7.801055,Aquaculture - At sea,"Alaria sp., Asparagopsis sp., Falkenbergia sp., Gracilaria sp., Ulva sp.","R248, Carrickart ED, Letterkenny Municipal District, County Donegal, Ulster, F92 EA33, Ã‰ire / Ireland",
Burma Road,Ireland,54.270005,-8.598941,Harvesting - Manual,"Fucus serratus, Fucus vesiculosus , Himanthalia elongata, Laminaria digitata","Burma Road, Carrowbunnaun, Knockaree ED, Sligo Municipal Borough District, County Sligo, Connacht, F91 VX08, ÃƒÂ‰ire / Ireland",brown algae
,Ireland,52.846734,-9.439759,Harvesting - Manual,"Laminaria digitata, Palmaria palmata, Saccharina latissima","R482, Milltown Malbay ED, West Clare Municipal District, County Clare, Munster, V95 R883, Ã‰ire / Ireland",
,Ireland,51.695575,-9.441906,Harvesting - Manual,,"Bantry Rural ED, West Cork, County Cork, Munster, P75 H304, Ã‰ire / Ireland",
,Ireland,53.287744,-6.715471,Harvesting - Manual,"Alaria esculenta, Chondrus crispus, Himanthalia elongata, Laminaria digitata, Palmaria palmata","L2002, Clane ED, The Municipal District of Clane Â— Maynooth, County Kildare, Leinster, W91 X253, Ã‰ire / Ireland",brown algae
ÃƒÂ‰ire / Ireland,Ireland,52.327458,-9.875051,Harvesting - n/a,Ascophyllum nodosum,ÃƒÂ‰ire / Ireland,"green algae, brown algae"
,Ireland,53.247812,-9.548089,Harvesting - Manual,"Chondrus crispus, Fucus serratus, Laminaria digitata, Palmaria palmata, Sargassum muticum","Cill ChuimÃ­n, Conamara Municipal District, County Galway, Connacht, H91 A2T6, Ã‰ire / Ireland",brown algae
The Promenade,Ireland,52.159132,-7.145882,Harvesting - Manual,"Chondrus crispus, Fucus sp., Palmaria palmata","The Promenade, Tramore, Waterford City Metropolitan District, County Waterford, Munster, X91 HF44, ÃƒÂ‰ire / Ireland",
,Ireland,55.000634,-8.4458,Harvesting - Manual,"Alaria esculenta, Chondrus crispus, Fucus serratus, Himanthalia elongata, Laminaria digitata, Palmaria palmata, Porphyra sp., Saccharina latissima, Ulva intestinalis","Rutland ED, Glenties Municipal District, County Donegal, Ulster, F94 HD91, Ã‰ire / Ireland","brown algae, green algae"
The Masterlift Group,Ireland,53.297921,-6.479218,Harvesting - Manual,"Ascophyllum nodosum, Chondrus crispus, Fucus serratus, Fucus vesiculosus","The Masterlift Group, Grants Road, Greenogue Business Park, Newcastle DED 1986, South Dublin, County Dublin, Leinster, D24 NX38, ÃƒÂ‰ire / Ireland","green algae, brown algae"
Curraghbinny Road,Ireland,51.812051,-8.318771,Harvesting - Manual,Lithothamnium calcareum,"Curraghbinny Road, Carrigaline ED, Municipal District of Carrigaline, County Cork, Munster, P43 AY66, ÃƒÂ‰ire / Ireland",
Conair DhÃƒÂºlra Cois Cladaigh Doire FhÃƒÂ­onÃƒÂ¡in / Derrynane Seashore Nature Trail,Ireland,51.761039,-10.121627,Harvesting - Manual,Fucus serratus,"Conair DhÃƒÂºlra Cois Cladaigh Doire FhÃƒÂ­onÃƒÂ¡in / Derrynane Seashore Nature Trail, Darrynane ED, Kenmare Municipal District, County Kerry, Munster, V93 DD83, ÃƒÂ‰ire / Ireland",brown algae
,Ireland,54.649041,-8.603343,Harvesting - Manual,"Alaria esculenta, Ascophyllum nodosum, Chondrus crispus, Fucus serratus, Himanthalia elongata, Laminaria digitata, Osmundea pinnatifida, Palmaria palmata, Porphyra umbilicalis, Saccharina latissima, Ulva sp., Ulva lactuca","Kilcar ED, Donegal Municipal District, County Donegal, Ulster, F94 A3NR, Ã‰ire / Ireland","green algae, brown algae, red algae"
Aiden Street,Ireland,53.85067,-8.998092,Harvesting - n/a,Ascophyllum nodosum,"Aiden Street, Kiltamagh ED, Claremorris-Swinford Municipal District, County Mayo, Connacht, F12 CH74, ÃƒÂ‰ire / Ireland","green algae, brown algae"
,Ireland,54.962226,-8.381103,Harvesting - Manual,Ascophyllum nodosum,"Dunglow ED, Glenties Municipal District, County Donegal, Ulster, F94 W974, Ã‰ire / Ireland","green algae, brown algae"
Main Street,Ireland,51.5629504,-9.4619722,Aquaculture - n/a,,"Main Street, Ballydehob ED, West Cork, County Cork, Munster, P81 XF34, ÃƒÂ‰ire / Ireland",
,Iceland,64.13072,-21.766755,Harvesting - n/a,Fucus vesiculosus,"Grafarholt, Grafarholt og ÃšlfarsÃ¡rdalur, ReykjavÃ­kurborg, HÃ¶fuÃ°borgarsvÃ¦Ã°iÃ°, 113, Ãsland",
ÃƒÂlftamÃƒÂ½rarskÃƒÂ³li,Iceland,64.13512,-21.893833,Harvesting - n/a,,"ÃƒÂlftamÃƒÂ½rarskÃƒÂ³li, 79, ÃƒÂlftamÃƒÂ½ri, HÃƒÂ¡aleiti, HÃƒÂ¡aleiti og BÃƒÂºstaÃƒÂ°ir, ReykjavÃƒÂ­kurborg, HÃƒÂ¶fuÃƒÂ°borgarsvÃƒÂ¦ÃƒÂ°iÃƒÂ°, 108, ÃƒÂsland",
,Iceland,64.082236,-21.938158,Harvesting - Manual,"Alaria esculenta, Chondrus sp., Laminaria sp., Palmaria palmata, Saccharina latissima, Vertebrata lanosa","5, HÃ³lshraun, HafnarfjarÃ°arkaupstaÃ°ur, HÃ¶fuÃ°borgarsvÃ¦Ã°iÃ°, 220, Ãsland",
MÃƒÂ¡vaflÃƒÂ¶t,Iceland,65.4467345,-22.2138013,Harvesting - Mechanical,"Ascophyllum nodosum, Laminaria digitata","MÃƒÂ¡vaflÃƒÂ¶t, ReykhÃƒÂ³lar, ReykhÃƒÂ³lahreppur, VestfirÃƒÂ°ir, 380, ÃƒÂsland","green algae, brown algae"
,Iceland,63.840356,-22.428059,Aquaculture - Land-based,Schizymenia jonssonii,"2, SeljabÃ³t, GrindavÃ­k, GrindavÃ­kurbÃ¦r, SuÃ°urnes, 240, Ãsland",
,Iceland,65.68556,-23.59726,Harvesting - n/a,Calcareous algae (Lithothamnium?),"4, Hafnarteigur, BÃ­ldudalur, VesturbyggÃ°, VestfirÃ°ir, 465, Ãsland",
,Iceland,65.686345,-23.597056,Harvesting - n/a,Lithothamnium calcareum,"7, Strandgata, BÃ­ldudalur, VesturbyggÃ°, VestfirÃ°ir, 465, Ãsland",
Zuider Haaks,The Netherlands,53.002399,4.786048,Aquaculture - Land-based,"Alaria esculenta, Palmaria palmata, Saccharina latissima","Zuider Haaks, 't Horntje, Den Hoorn, Texel, Noord-Holland, Nederland, 1797 SH, Nederland",
Haarlemmerstraatweg,The Netherlands,52.386011,4.721456,Harvesting - Manual,"Palmaria palmata, Undaria sp.","Haarlemmerstraatweg, Halfweg, Haarlemmermeer, Noord-Holland, Nederland, 1161 NJ, Nederland",
,The Netherlands,51.597538,3.685227,Aquaculture - At sea,Saccharina latissima,"1, Jacobahaven, De Banjaard, Kamperland, Noord-Beveland, Zeeland, Nederland, 4493 ML, Nederland",
Jacobahaven,The Netherlands,51.599174,3.68585,Aquaculture - At sea,"Alaria esculenta, Saccharina latissima, Ulva sp., Undaria sp.","Jacobahaven, De Banjaard, Kamperland, Noord-Beveland, Zeeland, Nederland, 4493 ML, Nederland",
,The Netherlands,51.434764,5.478118,Aquaculture - Land-based,"Caulerpa lentillifera, Caulerpa racemosa, Kappaphycus","38, Paradijslaan, Bergen, Centrum, Eindhoven, Noord-Brabant, Nederland, 5611 KN, Nederland",green algae
,The Netherlands,52.3935524,4.8170806,Aquaculture - Land-based,Ulva sp.,"62, Basisweg, Westhaven, Westpoort, Amsterdam, Noord-Holland, Nederland, 1043 AP, Nederland",
Algea,Norway,63.108061,7.769496,Harvesting - Mechanical,Ascophyllum nodosum,"Algea, Omagata, Vestbase, Nordlandet, Kristiansund, MÃƒÂ¸re og Romsdal, 6516, Norge","green algae, brown algae"
,Norway,60.4173,4.973613,Aquaculture - At sea,Saccharina latissima,"33, Harpefjellet, Landro, Angeltveit, Ã…gotnes, Ã˜ygarden, Vestland, 5363, Norge",
,Norway,60.116313,5.146503,Aquaculture - At sea,Saccharina latissima,"74, Taranger, TorangsvÃ¥g, Austevoll, Vestland, 5384, Norge",
,Norway,68.1335373,13.4347951,Harvesting - Manual,"Alaria esculenta, Laminaria digitata, Palmaria palmata, Porphyra umbilicalis, Vertebrata lanosa","60, SolhÃ¸gdveien, Napp, Flakstad, Nordland - NordlÃ¡ndda, 8382, Norge",
S12 Galleri og Verksted,Norway,60.401579,5.315561,Aquaculture - At sea,"Alaria esculenta, Laminaria digitata, Palmaria palmata, Saccharina latissima, Ulva lactuca","S12 Galleri og Verksted, Bontelabo, Bergenhus, Skuteviken, Bergenhus, Bergen, Vestland, 5004, Norge",
,Norway,61.283441,4.616663,Aquaculture - At sea,"Alaria esculenta, Laminaria sp.","1109, NordsjÃ¸vegen, HalsÃ¸y, Bulandet, Askvoll, Vestland, 6987, Norge",
FrÃƒÂ¸ya,Norway,63.702028,8.639528,Aquaculture - At sea,"Alaria esculenta, Saccharina latissima","FrÃƒÂ¸ya, TrÃƒÂ¸ndelag, Norge",
,Norway,62.2355657,5.573224,Aquaculture - At sea,"Alaria esculenta, Saccharina latissima","30, Budavegen, Ytre Hauge, Haugsbygda, Sande, MÃƒÂ¸re og Romsdal, 6082, Norge",
,Norway,59.412743,5.333597,Harvesting - n/a,Laminaria hyperborea,"159, TÃƒÂ¸mmerdalen, Fedjedalen, Haugesund, Rogaland, 5534, Norge",brown algae
,Norway,63.7626217,8.6714959,Harvesting - n/a,Ascophyllum nodosum,"279, Leirvikveien, Leirvika, FrÃ¸ya, TrÃ¸ndelag, 7273, Norge","green algae, brown algae"
Folkestien Hove,Norway,58.436695,8.842377,Aquaculture - At sea,"Fucus vesiculosus , Laminaria digitata, Saccharina latissima","Folkestien Hove, Hove, Arendal, Agder, 4818, Norge",
,Norway,59.252013,10.733811,Harvesting - Manual,"Alaria esculenta, Ascophyllum nodosum, Chondrus crispus, Fucus serratus, Fucus vesiculosus , Laminaria digitata, Palmaria palmata, Saccharina latissima, Ulva sp., Ulva lactuca, Vertebrata lanosa","1D, Mariusbakken, EngelsvikÃ¸ya, Engelsviken, Fredrikstad, Ã˜stfold, 1628, Norge","green algae, brown algae"
Skrova,Norway,68.164427,14.629186,Aquaculture - At sea,"Alaria marginata, Saccharina latissima","Skrova, VÃƒÂ¥gan, Nordland - NordlÃƒÂ¡nnda, 8320, Norge",
Nordfoldveien,Norway,67.762292,15.232373,Aquaculture - At sea,Saccharina latissima,"Nordfoldveien, ÃƒÂ˜vergÃƒÂ¥rden, Holmen, Nordfold, Steigen, Nordland - NordlÃƒÂ¡nnda, 8286, Norge",
,Norway,61.071869,5.802669,Aquaculture - At sea,Saccharina latissima,"2966, SÃ¸rsidevegen, FÃ¸sund, Bjordal, HÃ¸yanger, Vestland, 5962, Norge",
Kopholmen,Norway,59.415489,5.216859,Harvesting - Mechanical,,"Kopholmen, Osnes, Vik, KarmÃƒÂ¸y, Rogaland, 4260, Norge",
,Norway,60.451461,4.9648,Aquaculture - n/a,"Alaria esculenta, Saccharina latissima","4, Hansabrekko, Misje, ÃƒÂ˜ygarden, Vestland, 5366, Norge",
,Norway,63.438553,10.400052,Harvesting - Mechanical,Laminaria hyperborea,"16, BrattÃƒÂ¸rkaia, BrattÃƒÂ¸ra, Midtbyen, Trondheim, TrÃƒÂ¸ndelag, 7010, Norge",brown algae
Aure,Norway,63.188231,8.074536,Aquaculture - At sea,,"Aure, MÃƒÂ¸re og Romsdal, Norge",
,Norway,63.218941,7.595716,Aquaculture - At sea,Alaria esculenta,"Kristiansund, MÃƒÂ¸re og Romsdal, Norge",
LÃƒÂ¥tret,Norway,70.6723661,23.1227671,Harvesting - n/a,Ascophyllum nodosum,"LÃƒÂ¥tret, Hammerfest, Finnmark, 9651, Norge","green algae, brown algae"
Via das Lavegadas,Portugal,40.613139,-8.672806,Aquaculture - Land-based,"Codium tomentosum, Gracilaria gracilis, Palmaria palmata, Porphyra dioica, Porphyra umbilicalis, Ulva rigida","Via das Lavegadas, Bairro dos Pescadores, ÃƒÂlhavo (SÃƒÂ£o Salvador), ÃƒÂlhavo, Aveiro, 3830-198, Portugal",green algae
,Portugal,37.731972,-25.293833,Aquaculture - At sea,,"Rua Doutor Frederico Moniz Pereira, Fogo, Ribeira Quente, PovoaÃ§Ã£o, AÃ§ores, 9675-139, Portugal",
PoÃƒÂ§a da Rainha (Feteira),Portugal,38.517374,-28.669449,Aquaculture - At sea,,"PoÃƒÂ§a da Rainha (Feteira), Estrada Regional da Laginha, Lajinha, Feteira, Horta, AÃƒÂ§ores, 9900-371, Portugal",
Ponta de SÃƒÂ£o Jorge,Portugal,38.675641,-27.045914,Aquaculture - At sea,,"Ponta de SÃƒÂ£o Jorge, Porto Martins, Praia da VitÃƒÂ³ria, AÃƒÂ§ores, 9760-129, Portugal",
Caminho Rural da Carreira de Tiro,Portugal,38.546823,-28.667754,Harvesting - Manual,"Asparagopsis armata, Asparagopsis taxiformis, Cystoseira abies, marina, Cystoseira humilis, Fucus spiralis, Halopteris scoparia, Osmundea pinnatifida, Padina pavonica, Petalonia binghamiae, Porphyra umbilicalis, Pterocladiella capillacea, Sargassum vulgare, Ulva intestinalis, Ulva rigida, Zonaria tournefortii","Caminho Rural da Carreira de Tiro, Flamengos, Horta, AÃƒÂ§ores, 9900-404, Portugal","red algae, brown algae, green algae"
,Portugal,39.048485,-27.968552,Harvesting - n/a,,"EN 1, Fenais, SÃ£o Mateus, Santa Cruz da Graciosa, AÃ§ores, 9880-238, Portugal",
Rua das AcÃƒÂ¡cias,Portugal,40.119885,-8.852781,Harvesting - n/a,,"Rua das AcÃƒÂ¡cias, Parque Industrial da Figueira da Foz, SÃƒÂ£o Pedro, Figueira da Foz, Coimbra, 3090-380, Portugal",
Rua da Republica,Portugal,39.509385,-9.133456,Harvesting - Manual,Gelidium sesquipedale,"Rua da Republica, Casal das Hortas, SÃƒÂ£o Martinho do Porto, AlcobaÃƒÂ§a, Leiria, 2460-873, Portugal",red algae
,Portugal,38.5862882,-9.0462111,Harvesting - n/a,,"EN 10, Coina, Palhais e Coina, Barreiro, SetÃƒÂºbal, 2830-412, Portugal",
Ica NÃƒÂ¤ra,Sweden,59.28237,15.226681,Harvesting - Manual,"Brown seaweed, Green seaweed, Red seaweed","Ica NÃƒÂ¤ra, 10, LÃƒÂ¤ngbrotorg, Norr, ÃƒÂ–rebro, ÃƒÂ–rebro kommun, ÃƒÂ–rebro lÃƒÂ¤n, 703 66, Sverige",
,Sweden,58.866675,11.166668,Aquaculture - Land-based,"Laminaria digitata, Saccharina latissima, Ulva lactuca","Nappstad, Myren, StrÃ¶mstads kommun, VÃ¤stra GÃ¶talands lÃ¤n, 452 95, Sverige",
LovÃƒÂ©ncentret TjÃƒÂ¤rnÃƒÂ¶,Sweden,58.875908,11.146479,Aquaculture - Land-based,"Laminaria digitata, Saccharina latissima, Ulva lactuca","LovÃƒÂ©ncentret TjÃƒÂ¤rnÃƒÂ¶, HÃƒÂ¤ttebÃƒÂ¤cksvÃƒÂ¤gen, Klockarkassen, HÃƒÂ¤ttebÃƒÂ¤ck, StrÃƒÂ¶mstads kommun, VÃƒÂ¤stra GÃƒÂ¶talands lÃƒÂ¤n, 452 96, Sverige",
,United Kingdom,55.963736,-4.667917,Harvesting - Manual,"Alaria esculenta, Himanthalia elongata, Laminaria digitata, Osmundea pinnatifida, Palmaria palmata, Porphyra sp., Saccharina latissima, Ulva sp.","A814, Craigendoran, Colgrain, Argyll and Bute, Alba / Scotland, G82 5HF, United Kingdom","brown algae, red algae"
,United Kingdom,58.189381,-6.37543,Harvesting - Manual and Mechanical,Ascophyllum nodosum,"GÃ rradh Ã€irinis, SteÃ²rnabhagh, Na h-Eileanan Siar, Alba / Scotland, HS2 9JY, United Kingdom","green algae, brown algae"
,United Kingdom,55.299083,-6.189944,Aquaculture - At sea,"Alaria esculenta, Laminaria sp., Saccharina latissima","Church Bay, County Antrim, Northern Ireland / Tuaisceart Ã‰ireann, BT54 6RT, United Kingdom",
Bute Backpackers Hotel,United Kingdom,55.839803,-5.060358,Aquaculture - At sea,"Brown seaweed, Chondrus sp., Fucus vesiculosus , Palmaria palmata, Ulva sp.","Bute Backpackers Hotel, 36, Argyle Street, Rothesay, Argyll and Bute, Alba / Scotland, PA20 0AX, United Kingdom",
West Shore Road,United Kingdom,55.982417,-3.245895,Harvesting - Manual,"Laminaria digitata, Palmaria palmata, Saccharina latissima","West Shore Road, West Granton, West Pilton/West Granton, City of Edinburgh, Alba / Scotland, EH5 1QF, United Kingdom",
Cytocell,United Kingdom,52.212926,0.164363,Harvesting - n/a,,"Cytocell, 3-4, Newmarket Road, Barnwell, Cambridge, Cambridgeshire, Cambridgeshire and Peterborough, England, CB5 8PB, United Kingdom",
Hillman's Fancy,United Kingdom,55.132012,-6.659909,Harvesting - Manual,"Fucus vesiculosus , Himanthalia sp., Laminaria digitata, Palmaria palmata, Saccharina latissima","Hillman's Fancy, Ballycastle Road Industrial Estate, Coleraine, County Londonderry, Northern Ireland / Tuaisceart ÃƒÂ‰ireann, BT51 1LZ, United Kingdom",
Gweek Drive,United Kingdom,50.092538,-5.206117,Harvesting - Manual,"Chondrus sp., Himanthalia sp., Palmaria sp., Porphyra sp., Saccharina sp., Ulva sp.","Gweek Drive, Gweek, Cornwall, England, TR12 6UF, United Kingdom",
Averon Way,United Kingdom,57.690292,-4.259343,Harvesting - Manual,"Ascophyllum nodosum, Chondrus crispus, Fucus sp., Himanthalia sp., Laminaria digitata, Osmundea pinnatifida, Palmaria palmata, Porphyra sp., Saccharina latissima","Averon Way, Alness, Highland, Alba / Scotland, IV17 0PF, United Kingdom","green algae, brown algae, red algae"
,United Kingdom,57.307052,-6.130947,Harvesting - Manual,,"A87, Sligachan, Sconser, Highland, Alba / Scotland, IV51 9LL, United Kingdom",
,United Kingdom,57.646464,-7.238203,Harvesting - Manual,Ascophyllum nodosum,"A865, Trumaisgearraidh, Na h-Eileanan Siar, Alba / Scotland, HS6 5AY, United Kingdom","green algae, brown algae"
T O'Sullivan & Co.,United Kingdom,55.045098,-1.451966,Harvesting - Manual,Ascophyllum nodosum,"T O'Sullivan & Co., 230, Park View, Monkseaton, Whitley Bay, North Tyneside, North East, England, NE26 3QW, United Kingdom","green algae, brown algae"
Rhuvaal Road,United Kingdom,56.396759,-5.481767,Harvesting - Manual,,"Rhuvaal Road, Glenshellach, Oban, Argyll and Bute, Alba / Scotland, PA34 4BT, United Kingdom",
,United Kingdom,58.960423,-3.30015,Harvesting - Manual,,"31, Dundas Street, Stromness, Orkney Islands, Alba / Scotland, KW16 3BZ, United Kingdom",
Ayr Calor Centre,United Kingdom,55.481457,-4.602629,Harvesting - Manual,,"Ayr Calor Centre, 18, Boundary Road, Heathfield, Ayr, South Ayrshire, Alba / Scotland, KA8 9SW, United Kingdom",
Hillman's Fancy,United Kingdom,55.131589,-6.659679,Harvesting - n/a,,"Hillman's Fancy, Ballycastle Road Industrial Estate, Coleraine, County Londonderry, Northern Ireland / Tuaisceart ÃƒÂ‰ireann, BT51 1LZ, United Kingdom",
